ONEWEB-0275             
1 48993U 21060AC  26179.62897572 -.00000046  00000+0 -15457-3 0  9999
2 48993  87.9089 226.5036 0001956  96.1938 263.9416 13.16594441241069
ONEWEB-0276             
1 48994U 21060AD  26179.58622172  .00000039  00000+0  69441-4 0  9990
2 48994  87.9088 226.5114 0001906  93.0579 267.0770 13.16595133241076
ONEWEB-0277             
1 48995U 21060AE  26179.59890328  .00000038  00000+0  66946-4 0  9998
2 48995  87.9085 226.5171 0002012 100.7530 259.3828 13.16594338241062
ONEWEB-0278             
1 48996U 21060AF  26179.58938694  .00000104  00000+0  23716-3 0  9998
2 48996  87.9093 226.5101 0002291  95.2974 264.8418 13.16593464241193
ONEWEB-0279             
1 48997U 21060AG  26179.59730489  .00000039  00000+0  68681-4 0  9990
2 48997  87.9091 226.5066 0001843  99.7285 260.4054 13.16595344241128
ONEWEB-0280             
1 48998U 21060AH  26179.61234939 -.00000052  00000+0 -16917-3 0  9994
2 48998  87.9090 226.5076 0002314 102.9806 257.1584 13.16594348241066
ONEWEB-0281             
1 48999U 21060AJ  26179.61788292 -.00000070  00000+0 -21801-3 0  9999
2 48999  87.9088 226.5021 0002117  95.2169 264.9204 13.16595630241139
ONEWEB-0282             
1 49000U 21060AK  26179.57197544  .00000038  00000+0  66872-4 0  9992
2 49000  87.9088 226.5191 0002089 100.0405 260.0962 13.16592967241102
ONEWEB-0283             
1 49001U 21060AL  26179.56087636  .00000679  00000+0  17424-2 0  9990
2 49001  87.9086 226.5208 0001919  98.6324 261.5025 13.16602035241118
ONEWEB-0284             
1 49002U 21060AM  26179.63055683  .00000001  00000+0 -31480-4 0  9996
2 49002  87.9088 226.5005 0002368  99.6484 260.4915 13.16594477241108
ONEWEB-0285             
1 49075U 21075A   26179.49585883  .00000733  00000+0  20019-2 0  9991
2 49075  87.8955 348.4121 0001820  94.1533 265.9804 13.12434090236695
ONEWEB-0286             
1 49076U 21075B   26179.55415118  .00000132  00000+0  33056-3 0  9991
2 49076  87.8942 348.4169 0001901  86.4677 273.6669 13.12441122236056
ONEWEB-0287             
1 49077U 21075C   26179.55707112  .00000090  00000+0  19838-3 0  9995
2 49077  87.9131   3.6035 0002160  81.4449 278.6928 13.17649862235126
ONEWEB-0288             
1 49078U 21075D   26179.45433119  .00000459  00000+0  12394-2 0  9996
2 49078  87.8952 348.4144 0002051  90.6508 269.4856 13.12444668236665
ONEWEB-0289             
1 49079U 21075E   26179.51981642  .00000081  00000+0  17560-3 0  9995
2 49079  87.9138   3.6283 0002087  99.7488 260.3879 13.17648902235692
ONEWEB-0290             
1 49080U 21075F   26179.56889844  .00000069  00000+0  14341-3 0  9993
2 49080  87.9141   3.5909 0002095 103.1116 257.0249 13.17649468235118
ONEWEB-0291             
1 49081U 21075G   26179.55370689  .00000194  00000+0  46664-3 0  9997
2 49081  87.9133   3.6006 0002254  89.6401 270.4989 13.17649903235104
ONEWEB-0293             
1 49082U 21075H   26179.50307947  .00000051  00000+0  99391-4 0  9998
2 49082  87.9132   3.6138 0001970  93.4652 266.6705 13.17649424235128
ONEWEB-0294             
1 49083U 21075J   26179.46111674  .00000468  00000+0  12654-2 0  9991
2 49083  87.8954 348.4169 0002026 101.4652 258.6704 13.12442368236053
ONEWEB-0295             
1 49084U 21075K   26179.57817622  .00000084  00000+0  18318-3 0  9998
2 49084  87.9131   3.6028 0002159  86.4129 273.7250 13.17649600235094
ONEWEB-0296             
1 49085U 21075L   26179.51702309  .00000044  00000+0  85835-4 0  9993
2 49085  87.8956 348.4135 0002135  90.7748 269.3626 13.12442813236065
ONEWEB-0297             
1 49086U 21075M   26179.47127630  .00000317  00000+0  84592-3 0  9998
2 49086  87.8941 348.4318 0001916  90.8128 269.3220 13.12440801236663
ONEWEB-0298             
1 49087U 21075N   26179.50660366  .00000064  00000+0  13061-3 0  9993
2 49087  87.9131   3.6152 0001835  86.1497 273.9845 13.17648398235118
ONEWEB-0299             
1 49088U 21075P   26179.50813496  .00000095  00000+0  21175-3 0  9997
2 49088  87.9142   3.5962 0001990  86.0953 274.0406 13.17651125235091
ONEWEB-0300             
1 49089U 21075Q   26179.53989032  .00000446  00000+0  12033-2 0  9993
2 49089  87.8954 348.3988 0001625  82.1721 277.9592 13.12441500236699
ONEWEB-0301             
1 49090U 21075R   26179.44756007  .00000224  00000+0  58846-3 0  9996
2 49090  87.8950 348.4152 0001526  86.6503 273.4800 13.12441896236048
ONEWEB-0302             
1 49091U 21075S   26179.51023255 -.00000234  00000+0 -68601-3 0  9990
2 49091  87.8954 348.4150 0002098  98.2531 261.8836 13.12444507236037
ONEWEB-0304             
1 49092U 21075T   26179.55876137  .00000074  00000+0  15732-3 0  9997
2 49092  87.9132   3.6076 0002009  87.3706 272.7656 13.17649929235073
ONEWEB-0305             
1 49093U 21075U   26179.55201469  .00000002  00000+0 -28631-4 0  9993
2 49093  87.9140   3.5941 0002164  82.5546 277.5831 13.17649748235105
ONEWEB-0308             
1 49094U 21075V   26179.50345244 -.00000432  00000+0 -12358-2 0  9994
2 49094  87.8954 348.4083 0001828  93.4178 266.7160 13.12443405236040
