OBJECT_NAME,OBJECT_ID,EPOCH,MEAN_MOTION,ECCENTRICITY,INCLINATION,RA_OF_ASC_NODE,ARG_OF_PERICENTER,MEAN_ANOMALY,EPHEMERIS_TYPE,CLASSIFICATION_TYPE,NORAD_CAT_ID,ELEMENT_SET_NO,REV_AT_EPOCH,BSTAR,MEAN_MOTION_DOT,MEAN_MOTION_DDOT
ONEWEB-0275,2021-060AC,2026-06-28T15:05:43.502208,13.16594441,.00019568,87.9089,226.5036,96.1938,263.9416,0,U,48993,999,24106,-.15457293E-3,-.46E-6,0
ONEWEB-0276,2021-060AD,2026-06-28T14:04:09.556608,13.16595133,.00019067,87.9088,226.5114,93.0579,267.0770,0,U,48994,999,24107,.69441138E-4,.39E-6,0
ONEWEB-0277,2021-060AE,2026-06-28T14:22:25.243392,13.16594338,.00020129,87.9085,226.5171,100.7530,259.3828,0,U,48995,999,24106,.66946195E-4,.38E-6,0
ONEWEB-0278,2021-060AF,2026-06-28T14:08:43.031616,13.16593464,.00022915,87.9093,226.5101,95.2974,264.8418,0,U,48996,999,24119,.23715824E-3,.104E-5,0
ONEWEB-0279,2021-060AG,2026-06-28T14:20:07.142496,13.16595344,.00018437,87.9091,226.5066,99.7285,260.4054,0,U,48997,999,24112,.68681187E-4,.39E-6,0
ONEWEB-0280,2021-060AH,2026-06-28T14:41:46.987296,13.16594348,.00023146,87.9090,226.5076,102.9806,257.1584,0,U,48998,999,24106,-.1691674E-3,-.52E-6,0
ONEWEB-0281,2021-060AJ,2026-06-28T14:49:45.084288,13.16595630,.00021176,87.9088,226.5021,95.2169,264.9204,0,U,48999,999,24113,-.21800786E-3,-.7E-6,0
ONEWEB-0282,2021-060AK,2026-06-28T13:43:38.678016,13.16592967,.0002089,87.9088,226.5191,100.0405,260.0962,0,U,49000,999,24110,.66871746E-4,.38E-6,0
ONEWEB-0283,2021-060AL,2026-06-28T13:27:39.717504,13.16602035,.0001919,87.9086,226.5208,98.6324,261.5025,0,U,49001,999,24111,.17423748E-2,.679E-5,0
ONEWEB-0284,2021-060AM,2026-06-28T15:08:00.110112,13.16594477,.00023689,87.9088,226.5005,99.6484,260.4915,0,U,49002,999,24110,-.31479516E-4,.1E-7,0
ONEWEB-0285,2021-075A,2026-06-28T11:54:02.202912,13.12434090,.00018201,87.8955,348.4121,94.1533,265.9804,0,U,49075,999,23669,.20019075E-2,.733E-5,0
ONEWEB-0286,2021-075B,2026-06-28T13:17:58.661952,13.12441122,.0001901,87.8942,348.4169,86.4677,273.6669,0,U,49076,999,23605,.33055946E-3,.132E-5,0
ONEWEB-0287,2021-075C,2026-06-28T13:22:10.944768,13.17649862,.00021607,87.9131,3.6035,81.4449,278.6928,0,U,49077,999,23512,.1983797E-3,.9E-6,0
ONEWEB-0288,2021-075D,2026-06-28T10:54:14.214816,13.12444668,.00020518,87.8952,348.4144,90.6508,269.4856,0,U,49078,999,23666,.12394474E-2,.459E-5,0
ONEWEB-0289,2021-075E,2026-06-28T12:28:32.138688,13.17648902,.00020874,87.9138,3.6283,99.7488,260.3879,0,U,49079,999,23569,.17560299E-3,.81E-6,0
ONEWEB-0290,2021-075F,2026-06-28T13:39:12.825216,13.17649468,.00020959,87.9141,3.5909,103.1116,257.0249,0,U,49080,999,23511,.14340807E-3,.69E-6,0
ONEWEB-0291,2021-075G,2026-06-28T13:17:20.275296,13.17649903,.00022547,87.9133,3.6006,89.6401,270.4989,0,U,49081,999,23510,.46664497E-3,.194E-5,0
ONEWEB-0293,2021-075H,2026-06-28T12:04:26.066208,13.17649424,.00019705,87.9132,3.6138,93.4652,266.6705,0,U,49082,999,23512,.99391434E-4,.51E-6,0
ONEWEB-0294,2021-075J,2026-06-28T11:04:00.486336,13.12442368,.00020268,87.8954,348.4169,101.4652,258.6704,0,U,49083,999,23605,.1265427E-2,.468E-5,0
ONEWEB-0295,2021-075K,2026-06-28T13:52:34.425408,13.17649600,.00021592,87.9131,3.6028,86.4129,273.7250,0,U,49084,999,23509,.18317865E-3,.84E-6,0
ONEWEB-0296,2021-075L,2026-06-28T12:24:30.794976,13.12442813,.00021359,87.8956,348.4135,90.7748,269.3626,0,U,49085,999,23606,.85835217E-4,.44E-6,0
ONEWEB-0297,2021-075M,2026-06-28T11:18:38.272320,13.12440801,.00019167,87.8941,348.4318,90.8128,269.3220,0,U,49086,999,23666,.84591676E-3,.317E-5,0
ONEWEB-0298,2021-075N,2026-06-28T12:09:30.556224,13.17648398,.00018359,87.9131,3.6152,86.1497,273.9845,0,U,49087,999,23511,.13061203E-3,.64E-6,0
ONEWEB-0299,2021-075P,2026-06-28T12:11:42.860544,13.17651125,.00019907,87.9142,3.5962,86.0953,274.0406,0,U,49088,999,23509,.21174606E-3,.95E-6,0
ONEWEB-0300,2021-075Q,2026-06-28T12:57:26.523648,13.12441500,.00016259,87.8954,348.3988,82.1721,277.9592,0,U,49089,999,23669,.12032974E-2,.446E-5,0
ONEWEB-0301,2021-075R,2026-06-28T10:44:29.190048,13.12441896,.00015265,87.8950,348.4152,86.6503,273.4800,0,U,49090,999,23604,.58845939E-3,.224E-5,0
ONEWEB-0302,2021-075S,2026-06-28T12:14:44.092320,13.12444507,.00020989,87.8954,348.4150,98.2531,261.8836,0,U,49091,999,23603,-.68600925E-3,-.234E-5,0
ONEWEB-0304,2021-075T,2026-06-28T13:24:36.982368,13.17649929,.00020099,87.9132,3.6076,87.3706,272.7656,0,U,49092,999,23507,.15732437E-3,.74E-6,0
ONEWEB-0305,2021-075U,2026-06-28T13:14:54.069216,13.17649748,.00021648,87.9140,3.5941,82.5546,277.5831,0,U,49093,999,23510,-.2863094E-4,.2E-7,0
ONEWEB-0308,2021-075V,2026-06-28T12:04:58.290816,13.12443405,.00018286,87.8954,348.4083,93.4178,266.7160,0,U,49094,999,23604,-.12358434E-2,-.432E-5,0
